COSMOS 2361 [-]         
1 25590U 98076A   22324.45590424  .00000067  00000+0  55988-4 0  9998
2 25590  82.9334  90.8478 0032525 133.4388 293.8524 13.73034796197941
COSMOS 2378 [-]         
1 26818U 01023A   22319.81966360  .00000051  00000+0  37358-4 0  9992
2 26818  82.9249 112.0447 0034295  93.5263  16.6532 13.73979094 75097
COSMOS 2389 [-]         
1 27436U 02026A   22324.38048816  .00000052  00000+0  39242-4 0  9993
2 27436  82.9534  54.6161 0045184 301.4448 132.5886 13.74987463 27851
COSMOS 2398 [-]         
1 27818U 03023A   22323.43604104  .00000060  00000+0  49288-4 0  9998
2 27818  82.9511  17.4175 0030827 343.9557  26.5521 13.72222716974649
COSMOS 2407 [+]         
1 28380U 04028A   22320.68761863  .00000085  00000+0  71950-4 0  9997
2 28380  82.9586 323.7217 0038031 313.2241  46.5734 13.76126495920090
COSMOS 2414 [+]         
1 28521U 05002A   22323.70739151  .00000066  00000+0  41632-4 0  9991
2 28521  82.9470 310.8514 0041777  91.4119 269.1831 13.87673710902771
COSMOS 2429 [-]         
1 32052U 07038A   22324.10109700  .00000055  00000+0  42269-4 0  9997
2 32052  82.9800  87.6356 0037145 279.9042  79.7922 13.74975622762387
COSMOS 2454 [-]         
1 35635U 09039A   22324.48885444  .00000062  00000+0  37691-4 0  9998
2 35635  82.9536 296.3128 0020155  35.6588  85.0204 13.89701728676369
COSMOS 2463 [+]         
1 36519U 10017A   22324.55941458  .00000071  00000+0  61622-4 0  9995
2 36519  82.9577 128.1618 0036873 148.2334 280.7061 13.71485621629181
